[{"OBJECT_NAME":"UNKNOWN","OBJECT_ID":"","EPOCH":"2026-04-03T12:59:47.852448","MEAN_MOTION":14.4253561,"ECCENTRICITY":0.0014302,"INCLINATION":82.9175,"RA_OF_ASC_NODE":131.5109,"ARG_OF_PERICENTER":248.4298,"MEAN_ANOMALY":111.5372,"EPHEMERIS_TYPE":0,"CLASSIFICATION_TYPE":"U","NORAD_CAT_ID":81775,"ELEMENT_SET_NO":999,"REV_AT_EPOCH":64138,"BSTAR":0.0028325,"MEAN_MOTION_DOT":9.426e-5,"MEAN_MOTION_DDOT":0},{"OBJECT_NAME":"UNKNOWN","OBJECT_ID":"","EPOCH":"2026-04-03T05:34:41.877696","MEAN_MOTION":9.33761831,"ECCENTRICITY":0.143952,"INCLINATION":54.4618,"RA_OF_ASC_NODE":43.437,"ARG_OF_PERICENTER":149.0612,"MEAN_ANOMALY":220.3591,"EPHEMERIS_TYPE":0,"CLASSIFICATION_TYPE":"U","NORAD_CAT_ID":81779,"ELEMENT_SET_NO":999,"REV_AT_EPOCH":49073,"BSTAR":0.16394,"MEAN_MOTION_DOT":2.37e-5,"MEAN_MOTION_DDOT":0},{"OBJECT_NAME":"UNKNOWN","OBJECT_ID":"","EPOCH":"2026-04-03T13:10:48.902304","MEAN_MOTION":13.11448336,"ECCENTRICITY":0.0894875,"INCLINATION":65.8326,"RA_OF_ASC_NODE":204.5237,"ARG_OF_PERICENTER":233.094,"MEAN_ANOMALY":118.4837,"EPHEMERIS_TYPE":0,"CLASSIFICATION_TYPE":"U","NORAD_CAT_ID":81792,"ELEMENT_SET_NO":999,"REV_AT_EPOCH":9469,"BSTAR":0.0012405,"MEAN_MOTION_DOT":3.526e-5,"MEAN_MOTION_DDOT":0},{"OBJECT_NAME":"UNKNOWN","OBJECT_ID":"","EPOCH":"2026-04-03T17:49:45.098112","MEAN_MOTION":12.38618266,"ECCENTRICITY":0.0327235,"INCLINATION":103.7974,"RA_OF_ASC_NODE":24.8195,"ARG_OF_PERICENTER":42.9343,"MEAN_ANOMALY":319.6768,"EPHEMERIS_TYPE":0,"CLASSIFICATION_TYPE":"U","NORAD_CAT_ID":81812,"ELEMENT_SET_NO":999,"REV_AT_EPOCH":55442,"BSTAR":0.051107,"MEAN_MOTION_DOT":8.019e-5,"MEAN_MOTION_DDOT":0},{"OBJECT_NAME":"UNKNOWN","OBJECT_ID":"","EPOCH":"2026-04-04T07:10:43.435776","MEAN_MOTION":13.89817222,"ECCENTRICITY":0.0168716,"INCLINATION":66.2389,"RA_OF_ASC_NODE":15.4195,"ARG_OF_PERICENTER":183.1618,"MEAN_ANOMALY":176.8406,"EPHEMERIS_TYPE":0,"CLASSIFICATION_TYPE":"U","NORAD_CAT_ID":81816,"ELEMENT_SET_NO":999,"REV_AT_EPOCH":62498,"BSTAR":0.0015247,"MEAN_MOTION_DOT":2.023e-5,"MEAN_MOTION_DDOT":0},{"OBJECT_NAME":"UNKNOWN","OBJECT_ID":"","EPOCH":"2026-04-04T05:25:41.427552","MEAN_MOTION":12.47896904,"ECCENTRICITY":0.0035449,"INCLINATION":102.1686,"RA_OF_ASC_NODE":197.969,"ARG_OF_PERICENTER":256.9002,"MEAN_ANOMALY":102.8108,"EPHEMERIS_TYPE":0,"CLASSIFICATION_TYPE":"U","NORAD_CAT_ID":81819,"ELEMENT_SET_NO":999,"REV_AT_EPOCH":56204,"BSTAR":0.0069734,"MEAN_MOTION_DOT":9.87e-6,"MEAN_MOTION_DDOT":0},{"OBJECT_NAME":"UNKNOWN","OBJECT_ID":"","EPOCH":"2026-04-04T12:17:31.270272","MEAN_MOTION":14.36763553,"ECCENTRICITY":0.004902,"INCLINATION":65.844,"RA_OF_ASC_NODE":29.0544,"ARG_OF_PERICENTER":280.9043,"MEAN_ANOMALY":78.6538,"EPHEMERIS_TYPE":0,"CLASSIFICATION_TYPE":"U","NORAD_CAT_ID":81824,"ELEMENT_SET_NO":999,"REV_AT_EPOCH":64078,"BSTAR":0.0021745,"MEAN_MOTION_DOT":6.429e-5,"MEAN_MOTION_DDOT":0},{"OBJECT_NAME":"UNKNOWN","OBJECT_ID":"","EPOCH":"2026-03-31T00:07:08.399712","MEAN_MOTION":12.93780027,"ECCENTRICITY":0.0028252,"INCLINATION":90.2483,"RA_OF_ASC_NODE":5.3018,"ARG_OF_PERICENTER":97.086,"MEAN_ANOMALY":263.3472,"EPHEMERIS_TYPE":0,"CLASSIFICATION_TYPE":"U","NORAD_CAT_ID":81833,"ELEMENT_SET_NO":999,"REV_AT_EPOCH":46651,"BSTAR":0.001482,"MEAN_MOTION_DOT":4.16e-6,"MEAN_MOTION_DDOT":0},{"OBJECT_NAME":"UNKNOWN","OBJECT_ID":"","EPOCH":"2026-04-03T02:41:52.876320","MEAN_MOTION":14.58622573,"ECCENTRICITY":0.0043546,"INCLINATION":67.7608,"RA_OF_ASC_NODE":334.765,"ARG_OF_PERICENTER":264.8935,"MEAN_ANOMALY":246.6464,"EPHEMERIS_TYPE":0,"CLASSIFICATION_TYPE":"U","NORAD_CAT_ID":81838,"ELEMENT_SET_NO":999,"REV_AT_EPOCH":64956,"BSTAR":0.0018607,"MEAN_MOTION_DOT":8.715e-5,"MEAN_MOTION_DDOT":0},{"OBJECT_NAME":"UNKNOWN","OBJECT_ID":"","EPOCH":"2026-04-01T00:06:11.901888","MEAN_MOTION":14.34316426,"ECCENTRICITY":0.0062018,"INCLINATION":82.9137,"RA_OF_ASC_NODE":192.927,"ARG_OF_PERICENTER":176.4212,"MEAN_ANOMALY":183.7434,"EPHEMERIS_TYPE":0,"CLASSIFICATION_TYPE":"U","NORAD_CAT_ID":81844,"ELEMENT_SET_NO":999,"REV_AT_EPOCH":63854,"BSTAR":0.0035095,"MEAN_MOTION_DOT":0.00010097,"MEAN_MOTION_DDOT":0},{"OBJECT_NAME":"UNKNOWN","OBJECT_ID":"","EPOCH":"2026-04-01T11:09:58.376736","MEAN_MOTION":14.85830675,"ECCENTRICITY":0.008549,"INCLINATION":97.6782,"RA_OF_ASC_NODE":279.5934,"ARG_OF_PERICENTER":304.3343,"MEAN_ANOMALY":84.2359,"EPHEMERIS_TYPE":0,"CLASSIFICATION_TYPE":"U","NORAD_CAT_ID":81845,"ELEMENT_SET_NO":999,"REV_AT_EPOCH":66581,"BSTAR":0.00027296,"MEAN_MOTION_DOT":2.479e-5,"MEAN_MOTION_DDOT":0},{"OBJECT_NAME":"UNKNOWN","OBJECT_ID":"","EPOCH":"2026-04-02T11:39:58.021344","MEAN_MOTION":13.32817256,"ECCENTRICITY":0.0770112,"INCLINATION":65.6702,"RA_OF_ASC_NODE":167.8953,"ARG_OF_PERICENTER":325.4344,"MEAN_ANOMALY":29.8826,"EPHEMERIS_TYPE":0,"CLASSIFICATION_TYPE":"U","NORAD_CAT_ID":81864,"ELEMENT_SET_NO":999,"REV_AT_EPOCH":56559,"BSTAR":0.0005362,"MEAN_MOTION_DOT":1.38e-5,"MEAN_MOTION_DDOT":0},{"OBJECT_NAME":"UNKNOWN","OBJECT_ID":"","EPOCH":"2026-04-02T20:08:58.060896","MEAN_MOTION":13.88330954,"ECCENTRICITY":0.0062888,"INCLINATION":82.8025,"RA_OF_ASC_NODE":302.894,"ARG_OF_PERICENTER":48.4284,"MEAN_ANOMALY":329.9135,"EPHEMERIS_TYPE":0,"CLASSIFICATION_TYPE":"U","NORAD_CAT_ID":81865,"ELEMENT_SET_NO":999,"REV_AT_EPOCH":62396,"BSTAR":0.0011602,"MEAN_MOTION_DOT":1.426e-5,"MEAN_MOTION_DDOT":0},{"OBJECT_NAME":"UNKNOWN","OBJECT_ID":"","EPOCH":"2026-04-03T22:05:13.547616","MEAN_MOTION":13.76971177,"ECCENTRICITY":0.0020689,"INCLINATION":100.0579,"RA_OF_ASC_NODE":88.495,"ARG_OF_PERICENTER":345.5855,"MEAN_ANOMALY":14.4701,"EPHEMERIS_TYPE":0,"CLASSIFICATION_TYPE":"U","NORAD_CAT_ID":81893,"ELEMENT_SET_NO":999,"REV_AT_EPOCH":61951,"BSTAR":0.0014617,"MEAN_MOTION_DOT":1.395e-5,"MEAN_MOTION_DDOT":0},{"OBJECT_NAME":"UNKNOWN","OBJECT_ID":"","EPOCH":"2026-04-02T06:31:17.030496","MEAN_MOTION":13.20571109,"ECCENTRICITY":0.0169446,"INCLINATION":102.4124,"RA_OF_ASC_NODE":219.0034,"ARG_OF_PERICENTER":339.1803,"MEAN_ANOMALY":20.246,"EPHEMERIS_TYPE":0,"CLASSIFICATION_TYPE":"U","NORAD_CAT_ID":81899,"ELEMENT_SET_NO":999,"REV_AT_EPOCH":59357,"BSTAR":0.0054362,"MEAN_MOTION_DOT":2.319e-5,"MEAN_MOTION_DDOT":0},{"OBJECT_NAME":"UNKNOWN","OBJECT_ID":"","EPOCH":"2026-03-21T00:40:32.795040","MEAN_MOTION":13.15483007,"ECCENTRICITY":0.0843178,"INCLINATION":65.7092,"RA_OF_ASC_NODE":189.977,"ARG_OF_PERICENTER":71.9683,"MEAN_ANOMALY":297.132,"EPHEMERIS_TYPE":0,"CLASSIFICATION_TYPE":"U","NORAD_CAT_ID":81921,"ELEMENT_SET_NO":999,"REV_AT_EPOCH":3871,"BSTAR":0.00017021,"MEAN_MOTION_DOT":3.37e-6,"MEAN_MOTION_DDOT":0},{"OBJECT_NAME":"UNKNOWN","OBJECT_ID":"","EPOCH":"2026-04-02T13:39:14.681088","MEAN_MOTION":12.42654393,"ECCENTRICITY":0.067873,"INCLINATION":66.4176,"RA_OF_ASC_NODE":299.4289,"ARG_OF_PERICENTER":298.0528,"MEAN_ANOMALY":83.8029,"EPHEMERIS_TYPE":0,"CLASSIFICATION_TYPE":"U","NORAD_CAT_ID":81946,"ELEMENT_SET_NO":999,"REV_AT_EPOCH":56165,"BSTAR":0.001077,"MEAN_MOTION_DOT":2.81e-6,"MEAN_MOTION_DDOT":0}]
